start=new Date('2023-04-20T00:00:00.000Z').valueOf();
sats=[{"SITE":"AFETR","MEAN_MOTION":"15.08846108","PERIAPSIS":"538.773","EPHEMERIS_TYPE":"0","RCS_SIZE":"LARGE","TLE_LINE2":"2 54765  53.2165 101.6325 0001379  97.6825 262.4323 15.08846108 20607","MEAN_MOTION_DOT":"0.00002043","MEAN_MOTION_DDOT":"0.0000000000000","LAUNCH_DATE":"2022-12-17","APOAPSIS":"540.681","TLE_LINE1":"1 54765U 22175H   23109.39397547  .00002043  00000-0  14636-3 0  9998","GP_ID":"230369313","OBJECT_TYPE":"PAYLOAD","NORAD_CAT_ID":"54765","SEMIMAJOR_AXIS":"6917.862","ELEMENT_SET_NO":"999","MEAN_ANOMALY":"262.4323","CENTER_NAME":"EARTH","EPOCH":"2023-04-19T09:27:19.480608","FILE":"3890383","RA_OF_ASC_NODE":"101.6325","COUNTRY_CODE":"US","ARG_OF_PERICENTER":"97.6825","REF_FRAME":"TEME","BSTAR":"0.00014636000000","OBJECT_NAME":"STARLINK-5466","CLASSIFICATION_TYPE":"U","OBJECT_ID":"2022-175H","PERIOD":"95.437","DECAY_DATE":null,"INCLINATION":"53.2165","REV_AT_EPOCH":"2060","ECCENTRICITY":"0.00013790","TIME_SYSTEM":"UTC","MEAN_ELEMENT_THEORY":"SGP4"},{"OBJECT_TYPE":"PAYLOAD","TLE_LINE1":"1 54766U 22175J   23109.38293236  .00000496  00000-0  49265-4 0  9995","GP_ID":"230339648","NORAD_CAT_ID":"54766","SEMIMAJOR_AXIS":"6917.878","MEAN_ANOMALY":"284.4079","ELEMENT_SET_NO":"999","CENTER_NAME":"EARTH","SITE":"AFETR","MEAN_MOTION":"15.08840852","EPHEMERIS_TYPE":"0","RCS_SIZE":"LARGE","PERIAPSIS":"538.857","TLE_LINE2":"2 54766  53.2173 101.5676 0001280  75.7055 284.4079 15.08840852 18449","MEAN_MOTION_DOT":"0.00000496","MEAN_MOTION_DDOT":"0.0000000000000","LAUNCH_DATE":"2022-12-17","APOAPSIS":"540.628","BSTAR":"0.00004926500000","OBJECT_NAME":"STARLINK-5471","PERIOD":"95.438","OBJECT_ID":"2022-175J","CLASSIFICATION_TYPE":"U","DECAY_DATE":null,"INCLINATION":"53.2173","REV_AT_EPOCH":"1844","MEAN_ELEMENT_THEORY":"SGP4","ECCENTRICITY":"0.00012800","TIME_SYSTEM":"UTC","FILE":"3890209","EPOCH":"2023-04-19T09:11:25.355904","RA_OF_ASC_NODE":"101.5676","COUNTRY_CODE":"US","ARG_OF_PERICENTER":"75.7055","REF_FRAME":"TEME"},{"EPOCH":"2023-04-19T17:03:01.984032","FILE":"3890520","COUNTRY_CODE":"US","ARG_OF_PERICENTER":"98.7151","REF_FRAME":"TEME","RA_OF_ASC_NODE":"100.0563","BSTAR":"0.00002622300000","OBJECT_NAME":"STARLINK-5472","REV_AT_EPOCH":"2065","TIME_SYSTEM":"UTC","ECCENTRICITY":"0.00011370","MEAN_ELEMENT_THEORY":"SGP4","CLASSIFICATION_TYPE":"U","OBJECT_ID":"2022-175K","PERIOD":"95.438","DECAY_DATE":null,"INCLINATION":"53.2166","PERIAPSIS":"538.960","RCS_SIZE":"LARGE","EPHEMERIS_TYPE":"0","SITE":"AFETR","MEAN_MOTION":"15.08839485","LAUNCH_DATE":"2022-12-17","APOAPSIS":"540.534","TLE_LINE2":"2 54767  53.2166 100.0563 0001137  98.7151 261.3970 15.08839485 20654","MEAN_MOTION_DOT":"0.00000130","MEAN_MOTION_DDOT":"0.0000000000000","NORAD_CAT_ID":"54767","GP_ID":"230398032","TLE_LINE1":"1 54767U 22175K   23109.71043963  .00000130  00000-0  26223-4 0  9997","OBJECT_TYPE":"PAYLOAD","CENTER_NAME":"EARTH","SEMIMAJOR_AXIS":"6917.882","ELEMENT_SET_NO":"999","MEAN_ANOMALY":"261.3970"},{"PERIAPSIS":"538.916","EPHEMERIS_TYPE":"0","RCS_SIZE":"LARGE","SITE":"AFETR","MEAN_MOTION":"15.08840218","LAUNCH_DATE":"2022-12-17","APOAPSIS":"540.573","TLE_LINE2":"2 54768  53.2183  85.5314 0001198  88.9494 271.1635 15.08840218 20858","MEAN_MOTION_DOT":"-0.00000075","MEAN_MOTION_DDOT":"0.0000000000000","NORAD_CAT_ID":"54768","GP_ID":"230396780","TLE_LINE1":"1 54768U 22175L   23109.66585463 -.00000075  00000-0  13362-4 0  9997","OBJECT_TYPE":"PAYLOAD","CENTER_NAME":"EARTH","SEMIMAJOR_AXIS":"6917.880","ELEMENT_SET_NO":"999","MEAN_ANOMALY":"271.1635","EPOCH":"2023-04-19T15:58:49.840032","FILE":"3890520","COUNTRY_CODE":"US","ARG_OF_PERICENTER":"88.9494","REF_FRAME":"TEME","RA_OF_ASC_NODE":"85.5314","BSTAR":"0.00001336200000","OBJECT_NAME":"STARLINK-5444","REV_AT_EPOCH":"2085","ECCENTRICITY":"0.00011980","TIME_SYSTEM":"UTC","MEAN_ELEMENT_THEORY":"SGP4","OBJECT_ID":"2022-175L","CLASSIFICATION_TYPE":"U","PERIOD":"95.438","DECAY_DATE":null,"INCLINATION":"53.2183"},{"MEAN_ANOMALY":"268.9790","ELEMENT_SET_NO":"999","SEMIMAJOR_AXIS":"6917.886","CENTER_NAME":"EARTH","OBJECT_TYPE":"PAYLOAD","GP_ID":"230369813","TLE_LINE1":"1 54769U 22175M   23109.38661385  .00001210  00000-0  94129-4 0  9996","NORAD_CAT_ID":"54769","MEAN_MOTION_DDOT":"0.0000000000000","MEAN_MOTION_DOT":"0.00001210","TLE_LINE2":"2 54769  53.2165 101.5879 0001472  91.1371 268.9790 15.08838134 20602","APOAPSIS":"540.769","LAUNCH_DATE":"2022-12-17","MEAN_MOTION":"15.08838134","SITE":"AFETR","RCS_SIZE":"LARGE","EPHEMERIS_TYPE":"0","PERIAPSIS":"538.733","DECAY_DATE":null,"INCLINATION":"53.2165","PERIOD":"95.438","OBJECT_ID":"2022-175M","CLASSIFICATION_TYPE":"U","MEAN_ELEMENT_THEORY":"SGP4","ECCENTRICITY":"0.00014720","TIME_SYSTEM":"UTC","REV_AT_EPOCH":"2060","OBJECT_NAME":"STARLINK-5404","BSTAR":"0.00009412900000","RA_OF_ASC_NODE":"101.5879","REF_FRAME":"TEME","ARG_OF_PERICENTER":"91.1371","COUNTRY_CODE":"US","FILE":"3890383","EPOCH":"2023-04-19T09:16:43.436640"},{"BSTAR":"0.00003615300000","OBJECT_NAME":"STARLINK-5448","REV_AT_EPOCH":"2085","MEAN_ELEMENT_THEORY":"SGP4","ECCENTRICITY":"0.00015160","TIME_SYSTEM":"UTC","PERIOD":"95.438","OBJECT_ID":"2022-175N","CLASSIFICATION_TYPE":"U","INCLINATION":"53.2192","DECAY_DATE":null,"FILE":"3890520","EPOCH":"2023-04-19T15:53:31.618464","ARG_OF_PERICENTER":"85.7362","COUNTRY_CODE":"US","REF_FRAME":"TEME","RA_OF_ASC_NODE":"85.5075","NORAD_CAT_ID":"54770","OBJECT_TYPE":"PAYLOAD","GP_ID":"230397782","TLE_LINE1":"1 54770U 22175N   23109.66217151  .00000287  00000-0  36153-4 0  9993","CENTER_NAME":"EARTH","SEMIMAJOR_AXIS":"6917.883","MEAN_ANOMALY":"274.3803","ELEMENT_SET_NO":"999","RCS_SIZE":"LARGE","EPHEMERIS_TYPE":"0","PERIAPSIS":"538.699","SITE":"AFETR","MEAN_MOTION":"15.08839138","LAUNCH_DATE":"2022-12-17","APOAPSIS":"540.797","TLE_LINE2":"2 54770  53.2192  85.5075 0001516  85.7362 274.3803 15.08839138 20859","MEAN_MOTION_DOT":"0.00000287","MEAN_MOTION_DDOT":"0.0000000000000"},{"MEAN_ELEMENT_THEORY":"SGP4","ECCENTRICITY":"0.00001640","TIME_SYSTEM":"UTC","REV_AT_EPOCH":"2072","DECAY_DATE":null,"INCLINATION":"53.2174","PERIOD":"95.437","OBJECT_ID":"2022-175P","CLASSIFICATION_TYPE":"U","OBJECT_NAME":"STARLINK-5451","BSTAR":"0.00025998000000","REF_FRAME":"TEME","COUNTRY_CODE":"US","ARG_OF_PERICENTER":"352.6199","RA_OF_ASC_NODE":"94.9762","FILE":"3890520","EPOCH":"2023-04-19T16:39:49.419072","CENTER_NAME":"EARTH","MEAN_ANOMALY":"7.4791","ELEMENT_SET_NO":"999","SEMIMAJOR_AXIS":"6917.850","NORAD_CAT_ID":"54771","OBJECT_TYPE":"PAYLOAD","TLE_LINE1":"1 54771U 22175P   23109.69432198  .00003854  00000-0  25998-3 0  9994","GP_ID":"230398533","APOAPSIS":"539.828","LAUNCH_DATE":"2022-12-17","MEAN_MOTION_DDOT":"0.0000000000000","MEAN_MOTION_DOT":"0.00003854","TLE_LINE2":"2 54771  53.2174  94.9762 0000164 352.6199   7.4791 15.08849976 20727","EPHEMERIS_TYPE":"0","RCS_SIZE":"LARGE","PERIAPSIS":"539.601","MEAN_MOTION":"15.08849976","SITE":"AFETR"},{"NORAD_CAT_ID":"54772","GP_ID":"230397281","TLE_LINE1":"1 54772U 22175Q   23109.65849095 -.00001330  00000-0 -65451-4 0  9997","OBJECT_TYPE":"PAYLOAD","CENTER_NAME":"EARTH","SEMIMAJOR_AXIS":"6917.864","ELEMENT_SET_NO":"999","MEAN_ANOMALY":"276.6976","PERIAPSIS":"538.583","RCS_SIZE":"LARGE","EPHEMERIS_TYPE":"0","SITE":"AFETR","MEAN_MOTION":"15.08845357","LAUNCH_DATE":"2022-12-17","APOAPSIS":"540.875","TLE_LINE2":"2 54772  53.2186  85.4849 0001657  83.4204 276.6976 15.08845357 20854","MEAN_MOTION_DOT":"-0.00001330","MEAN_MOTION_DDOT":"0.0000000000000","BSTAR":"-0.00006545100000","OBJECT_NAME":"STARLINK-5452","REV_AT_EPOCH":"2085","TIME_SYSTEM":"UTC","ECCENTRICITY":"0.00016570","MEAN_ELEMENT_THEORY":"SGP4","CLASSIFICATION_TYPE":"U","OBJECT_ID":"2022-175Q","PERIOD":"95.437","DECAY_DATE":null,"INCLINATION":"53.2186","EPOCH":"2023-04-19T15:48:13.618080","FILE":"3890520","ARG_OF_PERICENTER":"83.4204","COUNTRY_CODE":"US","REF_FRAME":"TEME","RA_OF_ASC_NODE":"85.4849"},{"FILE":"3890520","EPOCH":"2023-04-19T16:52:25.600512","REF_FRAME":"TEME","ARG_OF_PERICENTER":"87.4395","COUNTRY_CODE":"US","RA_OF_ASC_NODE":"100.0110","OBJECT_NAME":"STARLINK-5453","BSTAR":"0.00008374600000","MEAN_ELEMENT_THEORY":"SGP4","ECCENTRICITY":"0.00012780","TIME_SYSTEM":"UTC","REV_AT_EPOCH":"2065","DECAY_DATE":null,"INCLINATION":"53.2170","PERIOD":"95.438","OBJECT_ID":"2022-175R","CLASSIFICATION_TYPE":"U","RCS_SIZE":"LARGE","EPHEMERIS_TYPE":"0","PERIAPSIS":"538.861","MEAN_MOTION":"15.08840008","SITE":"AFETR","APOAPSIS":"540.629","LAUNCH_DATE":"2022-12-17","MEAN_MOTION_DDOT":"0.0000000000000","MEAN_MOTION_DOT":"0.00001045","TLE_LINE2":"2 54773  53.2170 100.0110 0001278  87.4395 272.6744 15.08840008 20652","NORAD_CAT_ID":"54773","OBJECT_TYPE":"PAYLOAD","GP_ID":"230397031","TLE_LINE1":"1 54773U 22175R   23109.70307408  .00001045  00000-0  83746-4 0  9999","CENTER_NAME":"EARTH","MEAN_ANOMALY":"272.6744","ELEMENT_SET_NO":"999","SEMIMAJOR_AXIS":"6917.880"},{"EPOCH":"2023-04-19T15:44:17.651040","FILE":"3890520","COUNTRY_CODE":"US","ARG_OF_PERICENTER":"82.2575","REF_FRAME":"TEME","RA_OF_ASC_NODE":"85.4672","BSTAR":"-0.00001112600000","OBJECT_NAME":"STARLINK-5454","REV_AT_EPOCH":"2085","ECCENTRICITY":"0.00014020","TIME_SYSTEM":"UTC","MEAN_ELEMENT_THEORY":"SGP4","OBJECT_ID":"2022-175S","CLASSIFICATION_TYPE":"U","PERIOD":"95.438","INCLINATION":"53.2191","DECAY_DATE":null,"PERIAPSIS":"538.782","EPHEMERIS_TYPE":"0","RCS_SIZE":"LARGE","SITE":"AFETR","MEAN_MOTION":"15.08837980","LAUNCH_DATE":"2022-12-17","APOAPSIS":"540.721","MEAN_MOTION_DOT":"-0.00000465","TLE_LINE2":"2 54774  53.2191  85.4672 0001402  82.2575 277.8576 15.08837980 20854","MEAN_MOTION_DDOT":"0.0000000000000","NORAD_CAT_ID":"54774","GP_ID":"230398283","TLE_LINE1":"1 54774U 22175S   23109.65575985 -.00000465  00000-0 -11126-4 0  9991","OBJECT_TYPE":"PAYLOAD","CENTER_NAME":"EARTH","SEMIMAJOR_AXIS":"6917.887","ELEMENT_SET_NO":"999","MEAN_ANOMALY":"277.8576"}];
